ONEWEB-0118             
1 47264U 20100G   23280.79566314  .00000433  00000+0  11691-2 0  9991
2 47264  87.9068 186.1624 0001112  84.5972 275.5283 13.12442396135737
ONEWEB-0119             
1 47265U 20100H   23280.82321025  .00000170  00000+0  43815-3 0  9996
2 47265  87.9072 186.1941 0001884  70.2730 289.8601 13.12441608135710
ONEWEB-0120             
1 47266U 20100J   23280.77767198 -.00000355  00000+0 -10208-2 0  9992
2 47266  87.9075 186.1926 0001619  74.2703 285.8604 13.12445819135736
ONEWEB-0121             
1 47267U 20100K   23280.75966198 -.00000274  00000+0 -79626-3 0  9992
2 47267  87.9074 186.1964 0002006  72.6686 287.4662 13.12441069135646
ONEWEB-0122             
1 47268U 20100L   23280.75331046 -.00000016  00000+0 -78393-4 0  9996
2 47268  87.9074 186.2011 0001772  67.8422 292.2894 13.12439830135558
ONEWEB-0123             
1 47269U 20100M   23280.74907422  .00000082  00000+0  19129-3 0  9995
2 47269  87.9074 186.2078 0001794  72.6729 287.4596 13.12444529135691
ONEWEB-0124             
1 47270U 20100N   23280.81260886  .00000416  00000+0  11211-2 0  9995
2 47270  87.9072 186.1917 0002150  70.0525 290.0835 13.12446206135583
ONEWEB-0125             
1 47271U 20100P   23280.78930967 -.00000006  00000+0 -50850-4 0  9997
2 47271  87.9009 186.1902 0001946  85.8872 274.2479 13.12445666135643
